ONEWEB-0056             
1 45159U 20008AE  24193.52115778 -.00000669  00000+0 -19542-2 0  9994
2 45159  87.8943 176.5989 0002191  89.6071 270.5307 13.10373282216524
ONEWEB-0057             
1 45160U 20008AF  24193.45144534 -.00000536  00000+0 -15706-2 0  9991
2 45160  87.8948 176.6146 0002144  85.4216 274.7156 13.10374776216415
ONEWEB-0058             
1 45161U 20008AG  24194.50731314 -.00000432  00000+0 -12740-2 0  9997
2 45161  87.8938 176.4400 0002064  82.0044 278.1317 13.10370336216885
ONEWEB-0059             
1 45162U 20008AH  24193.51120325 -.00000375  00000+0 -11119-2 0  9997
2 45162  87.8941 176.6180 0001967  82.6682 277.4669 13.10371490216640
ONEWEB-0062             
1 45163U 20008AJ  24193.46140325 -.00000098  00000+0 -31680-3 0  9992
2 45163  87.8947 176.6120 0001708  82.1377 277.9944 13.10377744216515
ONEWEB-0065             
1 45164U 20008AK  24193.51618606 -.00000585  00000+0 -17113-2 0  9996
2 45164  87.8948 176.6087 0002153  90.5534 269.5840 13.10371602216207
ONEWEB-0066             
1 45424U 20020A   24194.16453223 -.00000429  00000+0 -12465-2 0  9995
2 45424  87.8975 161.3834 0002406  77.8572 282.2825 13.11416903210280
ONEWEB-0067             
1 45425U 20020B   24194.43086926  .00000518  00000+0  14266-2 0  9996
2 45425  87.8963 161.2892 0002324  83.0334 277.1058 13.11417134210373
